KUIPER-00549            
1 69616U 26140AA  26198.55399429  .00011270  00000+0  31279-3 0  9998
2 69616  51.8770 251.9940 0007974  23.7391 336.3962 15.37370033  5908
KUIPER-00550            
1 69617U 26140AB  26198.61174375 -.00060578  00000+0 -19704-2 0  9992
2 69617  51.8787 252.3666 0008635  71.1882 289.0038 15.31395097  5903
KUIPER-00551            
1 69618U 26140AC  26198.52456677  .00011186  00000+0  30124-3 0  9990
2 69618  51.8763 251.8075 0011948 290.9919  68.9790 15.38280263  5903
KUIPER-00554            
1 69619U 26140AD  26198.46573867  .00010692  00000+0  29095-3 0  9991
2 69619  51.8774 252.1577 0010934 299.1214  60.8678 15.38021157  5899
KUIPER-00555            
1 69620U 26140AE  26198.52807291  .00011851  00000+0  32144-3 0  9998
2 69620  51.8803 251.8375 0011465 293.0644  66.9134 15.38000281  5907
KUIPER-00556            
1 69621U 26140AF  26198.52634823  .00008710  00000+0  23673-3 0  9995
2 69621  51.8790 251.8212 0012209 275.8759  84.0837 15.38306805  5907
KUIPER-00557            
1 69622U 26140AG  26198.14732923 -.00002792  00000+0 -63982-4 0  9998
2 69622  51.8798 253.7806 0009566 307.0267  52.9844 15.37514067  5845
KUIPER-00560            
1 69623U 26140AH  26198.91668981  .00014986  00000+0  41673-3 0  9994
2 69623  51.8771 249.9569 0009278 322.4773  25.6317 15.37021451  5531
KUIPER-00561            
1 69624U 26140AJ  26198.52799426  .00015128  00000+0  39759-3 0  9992
2 69624  51.8811 251.8391 0008373 319.0238  41.0119 15.38770579  5901
KUIPER-00564            
1 69625U 26140AK  26198.46976981 -.00004207  00000+0 -10290-3 0  9996
2 69625  51.8809 252.1884 0009139 303.5856  56.4258 15.37207261  5899
KUIPER-00567            
1 69626U 26140AL  26198.52373546  .00010533  00000+0  28365-3 0  9991
2 69626  51.8781 251.7979 0013233 277.9947  81.9539 15.38335096  5900
KUIPER-00573            
1 69627U 26140AM  26198.15118053  .00014263  00000+0  39089-3 0  9990
2 69627  51.8770 253.7966 0009311 292.5254  67.4747 15.37517892  5841
KUIPER-00258            
1 69763U 26151A   26198.93619761  .00003326  00000+0  10823-3 0  9994
2 69763  51.8673 167.3485 0011517 176.1999 183.9076 15.34767856  2439
KUIPER-00526            
1 69764U 26151B   26198.46227668  .00012172  00000+0  33725-3 0  9999
2 69764  51.8774 169.4309 0005842 149.0343 211.0989 15.37352408  2360
KUIPER-00558            
1 69765U 26151C   26198.91668981  .00041723  00000+0  12722-2 0  9994
2 69765  51.8777 167.3212 0006942 171.7253 141.2440 15.33518626  3031
KUIPER-00569            
1 69766U 26151D   26198.91555443  .00019595  00000+0  53327-3 0  9992
2 69766  51.8783 167.2196 0005300 142.1548 217.9812 15.37510491  2438
